[
  {
    "OBJECT_NAME": "STARLINK-5465",
    "OBJECT_ID": "22175T",
    "EPOCH": "2025-11-11T03:14:48.064992",
    "MEAN_MOTION": 15.08847191,
    "ECCENTRICITY": 0.0001593,
    "INCLINATION": 53.2167,
    "RA_OF_ASC_NODE": 216.1692,
    "ARG_OF_PERICENTER": 91.6748,
    "MEAN_ANOMALY": 268.4426,
    "EPHEMERIS_TYPE": 0,
    "CLASSIFICATION_TYPE": "U",
    "NORAD_CAT_ID": 54775,
    "ELEMENT_SET_NO": 999,
    "REV_AT_EPOCH": 16202,
    "BSTAR": 0.00024816,
    "MEAN_MOTION_DOT": 3.664e-05,
    "MEAN_MOTION_DDOT": 0.0,
    "TLE_LINE1": "1 54775U 22175T   25315.13527853  .00003664  00000+0  24816-3 0  9997",
    "TLE_LINE2": "2 54775  53.2167 216.1692 0001593  91.6748 268.4426 15.08847191162021",
    "COMMENT": "Grouped by shell and plane from TLE"
  },
  {
    "OBJECT_NAME": "STARLINK-5470",
    "OBJECT_ID": "22175U",
    "EPOCH": "2025-11-11T02:42:58.058208",
    "MEAN_MOTION": 15.08848221,
    "ECCENTRICITY": 0.0001631,
    "INCLINATION": 53.2163,
    "RA_OF_ASC_NODE": 216.0359,
    "ARG_OF_PERICENTER": 79.4639,
    "MEAN_ANOMALY": 280.6536,
    "EPHEMERIS_TYPE": 0,
    "CLASSIFICATION_TYPE": "U",
    "NORAD_CAT_ID": 54776,
    "ELEMENT_SET_NO": 999,
    "REV_AT_EPOCH": 16202,
    "BSTAR": 0.00036759,
    "MEAN_MOTION_DOT": 5.568e-05,
    "MEAN_MOTION_DDOT": 0.0,
    "TLE_LINE1": "1 54776U 22175U   25315.11317197  .00005568  00000+0  36759-3 0  9998",
    "TLE_LINE2": "2 54776  53.2163 216.0359 0001631  79.4639 280.6536 15.08848221162026",
    "COMMENT": "Grouped by shell and plane from TLE"
  },
  {
    "OBJECT_NAME": "STARLINK-5468",
    "OBJECT_ID": "22175V",
    "EPOCH": "2025-11-11T03:09:30.608928",
    "MEAN_MOTION": 15.08827621,
    "ECCENTRICITY": 0.0001782,
    "INCLINATION": 53.2164,
    "RA_OF_ASC_NODE": 216.147,
    "ARG_OF_PERICENTER": 99.49,
    "MEAN_ANOMALY": 260.6293,
    "EPHEMERIS_TYPE": 0,
    "CLASSIFICATION_TYPE": "U",
    "NORAD_CAT_ID": 54777,
    "ELEMENT_SET_NO": 999,
    "REV_AT_EPOCH": 16202,
    "BSTAR": 0.0008958700000000001,
    "MEAN_MOTION_DOT": 0.00013994,
    "MEAN_MOTION_DDOT": 0.0,
    "TLE_LINE1": "1 54777U 22175V   25315.13160427  .00013994  00000+0  89587-3 0  9992",
    "TLE_LINE2": "2 54777  53.2164 216.1470 0001782  99.4900 260.6293 15.08827621162022",
    "COMMENT": "Grouped by shell and plane from TLE"
  },
  {
    "OBJECT_NAME": "STARLINK-5442",
    "OBJECT_ID": "22175AC",
    "EPOCH": "2025-11-11T03:04:11.002368",
    "MEAN_MOTION": 15.08846313,
    "ECCENTRICITY": 0.000135,
    "INCLINATION": 53.2166,
    "RA_OF_ASC_NODE": 216.1238,
    "ARG_OF_PERICENTER": 86.5912,
    "MEAN_ANOMALY": 273.5234,
    "EPHEMERIS_TYPE": 0,
    "CLASSIFICATION_TYPE": "U",
    "NORAD_CAT_ID": 54784,
    "ELEMENT_SET_NO": 999,
    "REV_AT_EPOCH": 16202,
    "BSTAR": 0.00018414,
    "MEAN_MOTION_DOT": 2.644e-05,
    "MEAN_MOTION_DDOT": 0.0,
    "TLE_LINE1": "1 54784U 22175AC  25315.12790512  .00002644  00000+0  18414-3 0  9994",
    "TLE_LINE2": "2 54784  53.2166 216.1238 0001350  86.5912 273.5234 15.08846313162022",
    "COMMENT": "Grouped by shell and plane from TLE"
  },
  {
    "OBJECT_NAME": "STARLINK-5441",
    "OBJECT_ID": "22175AF",
    "EPOCH": "2025-11-11T02:58:52.707360",
    "MEAN_MOTION": 15.08845426,
    "ECCENTRICITY": 0.0001365,
    "INCLINATION": 53.216,
    "RA_OF_ASC_NODE": 216.1007,
    "ARG_OF_PERICENTER": 87.5907,
    "MEAN_ANOMALY": 272.5242,
    "EPHEMERIS_TYPE": 0,
    "CLASSIFICATION_TYPE": "U",
    "NORAD_CAT_ID": 54787,
    "ELEMENT_SET_NO": 999,
    "REV_AT_EPOCH": 16202,
    "BSTAR": 0.00015619,
    "MEAN_MOTION_DOT": 2.199e-05,
    "MEAN_MOTION_DDOT": 0.0,
    "TLE_LINE1": "1 54787U 22175AF  25315.12422115  .00002199  00000+0  15619-3 0  9997",
    "TLE_LINE2": "2 54787  53.2160 216.1007 0001365  87.5907 272.5242 15.08845426162026",
    "COMMENT": "Grouped by shell and plane from TLE"
  },
  {
    "OBJECT_NAME": "STARLINK-5431",
    "OBJECT_ID": "22175AL",
    "EPOCH": "2025-11-11T02:48:15.804576",
    "MEAN_MOTION": 15.0883106,
    "ECCENTRICITY": 0.0001458,
    "INCLINATION": 53.2155,
    "RA_OF_ASC_NODE": 216.0548,
    "ARG_OF_PERICENTER": 89.5199,
    "MEAN_ANOMALY": 270.5961,
    "EPHEMERIS_TYPE": 0,
    "CLASSIFICATION_TYPE": "U",
    "NORAD_CAT_ID": 54792,
    "ELEMENT_SET_NO": 999,
    "REV_AT_EPOCH": 16202,
    "BSTAR": 0.0,
    "MEAN_MOTION_DOT": -2.111e-05,
    "MEAN_MOTION_DDOT": 0.0,
    "TLE_LINE1": "1 54792U 22175AL  25315.11684959 -.00002111  00000+0 -11464-3 0  9998",
    "TLE_LINE2": "2 54792  53.2155 216.0548 0001458  89.5199 270.5961 15.08831060162028",
    "COMMENT": "Grouped by shell and plane from TLE"
  },
  {
    "OBJECT_NAME": "STARLINK-5435",
    "OBJECT_ID": "22175AR",
    "EPOCH": "2025-11-11T03:16:10.854336",
    "MEAN_MOTION": 15.08844509,
    "ECCENTRICITY": 0.0001522,
    "INCLINATION": 53.2164,
    "RA_OF_ASC_NODE": 216.1675,
    "ARG_OF_PERICENTER": 101.9613,
    "MEAN_ANOMALY": 258.1549,
    "EPHEMERIS_TYPE": 0,
    "CLASSIFICATION_TYPE": "U",
    "NORAD_CAT_ID": 54797,
    "ELEMENT_SET_NO": 999,
    "REV_AT_EPOCH": 16202,
    "BSTAR": 0.00024573,
    "MEAN_MOTION_DOT": 3.625e-05,
    "MEAN_MOTION_DDOT": 0.0,
    "TLE_LINE1": "1 54797U 22175AR  25315.13623674  .00003625  00000+0  24573-3 0  9996",
    "TLE_LINE2": "2 54797  53.2164 216.1675 0001522 101.9613 258.1549 15.08844509162023",
    "COMMENT": "Grouped by shell and plane from TLE"
  },
  {
    "OBJECT_NAME": "STARLINK-5429",
    "OBJECT_ID": "22175AV",
    "EPOCH": "2025-11-11T02:37:40.753344",
    "MEAN_MOTION": 15.08848585,
    "ECCENTRICITY": 0.0001432,
    "INCLINATION": 53.2158,
    "RA_OF_ASC_NODE": 216.0072,
    "ARG_OF_PERICENTER": 65.0431,
    "MEAN_ANOMALY": 295.071,
    "EPHEMERIS_TYPE": 0,
    "CLASSIFICATION_TYPE": "U",
    "NORAD_CAT_ID": 54801,
    "ELEMENT_SET_NO": 999,
    "REV_AT_EPOCH": 16202,
    "BSTAR": 0.00044948,
    "MEAN_MOTION_DOT": 6.874e-05,
    "MEAN_MOTION_DDOT": 0.0,
    "TLE_LINE1": "1 54801U 22175AV  25315.10949946  .00006874  00000+0  44948-3 0  9999",
    "TLE_LINE2": "2 54801  53.2158 216.0072 0001432  65.0431 295.0710 15.08848585162028",
    "COMMENT": "Grouped by shell and plane from TLE"
  },
  {
    "OBJECT_NAME": "STARLINK-5430",
    "OBJECT_ID": "22175AX",
    "EPOCH": "2025-11-11T02:53:34.602432",
    "MEAN_MOTION": 15.08848849,
    "ECCENTRICITY": 0.0001394,
    "INCLINATION": 53.2152,
    "RA_OF_ASC_NODE": 216.064,
    "ARG_OF_PERICENTER": 82.8288,
    "MEAN_ANOMALY": 277.2863,
    "EPHEMERIS_TYPE": 0,
    "CLASSIFICATION_TYPE": "U",
    "NORAD_CAT_ID": 54803,
    "ELEMENT_SET_NO": 999,
    "REV_AT_EPOCH": 16202,
    "BSTAR": 0.00021302,
    "MEAN_MOTION_DOT": 3.105e-05,
    "MEAN_MOTION_DDOT": 0.0,
    "TLE_LINE1": "1 54803U 22175AX  25315.12053938  .00003105  00000+0  21302-3 0  9993",
    "TLE_LINE2": "2 54803  53.2152 216.0640 0001394  82.8288 277.2863 15.08848849162023",
    "COMMENT": "Grouped by shell and plane from TLE"
  },
  {
    "OBJECT_NAME": "STARLINK-5491",
    "OBJECT_ID": "23013B",
    "EPOCH": "2025-11-11T01:37:22.711872",
    "MEAN_MOTION": 15.02536185,
    "ECCENTRICITY": 0.000129,
    "INCLINATION": 43.003,
    "RA_OF_ASC_NODE": 212.0415,
    "ARG_OF_PERICENTER": 267.4243,
    "MEAN_ANOMALY": 92.6452,
    "EPHEMERIS_TYPE": 0,
    "CLASSIFICATION_TYPE": "U",
    "NORAD_CAT_ID": 55332,
    "ELEMENT_SET_NO": 999,
    "REV_AT_EPOCH": 15401,
    "BSTAR": 8.463600000000001e-05,
    "MEAN_MOTION_DOT": 9.4e-06,
    "MEAN_MOTION_DDOT": 0.0,
    "TLE_LINE1": "1 55332U 23013B   25315.06762398  .00000940  00000+0  84636-4 0  9997",
    "TLE_LINE2": "2 55332  43.0030 212.0415 0001290 267.4243  92.6452 15.02536185154010",
    "COMMENT": "Grouped by shell and plane from TLE"
  },
  {
    "OBJECT_NAME": "STARLINK-5655",
    "OBJECT_ID": "23013F",
    "EPOCH": "2025-11-11T01:51:44.768736",
    "MEAN_MOTION": 15.02539027,
    "ECCENTRICITY": 9.39e-05,
    "INCLINATION": 43.0031,
    "RA_OF_ASC_NODE": 212.0305,
    "ARG_OF_PERICENTER": 268.8165,
    "MEAN_ANOMALY": 91.257,
    "EPHEMERIS_TYPE": 0,
    "CLASSIFICATION_TYPE": "U",
    "NORAD_CAT_ID": 55336,
    "ELEMENT_SET_NO": 999,
    "REV_AT_EPOCH": 15401,
    "BSTAR": 7.6273e-05,
    "MEAN_MOTION_DOT": 8.27e-06,
    "MEAN_MOTION_DDOT": 0.0,
    "TLE_LINE1": "1 55336U 23013F   25315.07760149  .00000827  00000+0  76273-4 0  9996",
    "TLE_LINE2": "2 55336  43.0031 212.0305 0000939 268.8165  91.2570 15.02539027154014",
    "COMMENT": "Grouped by shell and plane from TLE"
  },
  {
    "OBJECT_NAME": "STARLINK-5667",
    "OBJECT_ID": "23013G",
    "EPOCH": "2025-11-11T01:23:00.844224",
    "MEAN_MOTION": 15.02511786,
    "ECCENTRICITY": 0.0001369,
    "INCLINATION": 43.0032,
    "RA_OF_ASC_NODE": 211.9312,
    "ARG_OF_PERICENTER": 272.6394,
    "MEAN_ANOMALY": 87.4292,
    "EPHEMERIS_TYPE": 0,
    "CLASSIFICATION_TYPE": "U",
    "NORAD_CAT_ID": 55337,
    "ELEMENT_SET_NO": 999,
    "REV_AT_EPOCH": 15401,
    "BSTAR": 0.00051681,
    "MEAN_MOTION_DOT": 6.78e-05,
    "MEAN_MOTION_DDOT": 0.0,
    "TLE_LINE1": "1 55337U 23013G   25315.05764866  .00006780  00000+0  51681-3 0  9994",
    "TLE_LINE2": "2 55337  43.0032 211.9312 0001369 272.6394  87.4292 15.02511786154017",
    "COMMENT": "Grouped by shell and plane from TLE"
  },
  {
    "OBJECT_NAME": "STARLINK-5653",
    "OBJECT_ID": "23013Q",
    "EPOCH": "2025-11-11T03:03:30.885120",
    "MEAN_MOTION": 15.02540887,
    "ECCENTRICITY": 0.0001161,
    "INCLINATION": 43.0026,
    "RA_OF_ASC_NODE": 211.6226,
    "ARG_OF_PERICENTER": 272.3358,
    "MEAN_ANOMALY": 87.7351,
    "EPHEMERIS_TYPE": 0,
    "CLASSIFICATION_TYPE": "U",
    "NORAD_CAT_ID": 55345,
    "ELEMENT_SET_NO": 999,
    "REV_AT_EPOCH": 15402,
    "BSTAR": 1.7771000000000003e-05,
    "MEAN_MOTION_DOT": 3.7e-07,
    "MEAN_MOTION_DDOT": 0.0,
    "TLE_LINE1": "1 55345U 23013Q   25315.12744080  .00000037  00000+0  17771-4 0  9999",
    "TLE_LINE2": "2 55345  43.0026 211.6226 0001161 272.3358  87.7351 15.02540887154021",
    "COMMENT": "Grouped by shell and plane from TLE"
  }
]